{
  "norad_id": 59961,
  "name": "STARLINK-31993",
  "history": [
    {
      "epoch": "2026-03-28T21:00:36.187776",
      "apogee_km": 476.0930574203312,
      "perigee_km": 474.3444922279423,
      "latitude_deg": 39.687438122716706,
      "longitude_deg": -99.85979135986418,
      "semi_major_axis_km": 6853.3557748241365,
      "eccentricity": 0.00012757,
      "inclination_deg": 53.1622,
      "raan_deg": 336.4311,
      "arg_perigee_deg": 89.9476,
      "mean_anomaly_deg": 270.1671,
      "mean_motion_rev_day": 15.30198759
    },
    {
      "epoch": "2026-03-29T00:08:42.743328",
      "apogee_km": 475.9904609946252,
      "perigee_km": 474.4703841003047,
      "latitude_deg": 11.012097454854914,
      "longitude_deg": -87.31917407969013,
      "semi_major_axis_km": 6853.367422547465,
      "eccentricity": 0.0001109,
      "inclination_deg": 53.1625,
      "raan_deg": 335.8256,
      "arg_perigee_deg": 91.4793,
      "mean_anomaly_deg": 268.6335,
      "mean_motion_rev_day": 15.30194858
    }
  ]
}